OBJECT_NAME,OBJECT_ID,EPOCH,MEAN_MOTION,ECCENTRICITY,INCLINATION,RA_OF_ASC_NODE,ARG_OF_PERICENTER,MEAN_ANOMALY,EPHEMERIS_TYPE,CLASSIFICATION_TYPE,NORAD_CAT_ID,ELEMENT_SET_NO,REV_AT_EPOCH,BSTAR,MEAN_MOTION_DOT,MEAN_MOTION_DDOT
KOREASAT 6,2010-070B,2026-07-18T06:22:38.755776,1.00271279,.00026474,0.0154,76.2933,53.3561,61.9698,0,U,37265,999,5708,0,-.12E-5,0
BEIDOU-2 IGSO-3,2011-013A,2026-07-17T22:06:02.772288,1.00260211,.00354585,62.4498,39.8607,183.4333,150.2767,0,U,37384,999,5596,0,-.173E-5,0
INTELSAT 28 (IS-28),2011-016A,2026-07-18T06:13:55.290144,1.00271825,.00038078,1.8848,82.2464,41.2702,234.3194,0,U,37392,999,5359,0,-.234E-5,0
YAHSAT 1A,2011-016B,2026-07-18T04:55:15.589920,1.00269654,.00032308,0.0182,68.9859,45.5906,307.7674,0,U,37393,999,4271,0,0,0
SBIRS GEO-1 (USA 230),2011-019A,2026-07-17T23:48:56.844576,1.00272690,.00018957,4.6021,53.0944,58.0226,233.7271,0,U,37481,999,5570,0,.89E-6,0
TELSTAR 14R,2011-021A,2026-07-18T06:00:41.558400,0.98982609,.00081302,0.0913,84.6987,293.2782,290.6217,0,U,37602,999,5614,0,-.87E-6,0
GSAT-8,2011-022A,2026-07-17T23:52:20.972352,1.00271383,.00025274,2.2089,81.4461,157.8874,109.6442,0,U,37605,999,5352,0,.75E-6,0
ST-2,2011-022B,2026-07-18T02:36:38.656800,1.00271468,.00016423,0.0172,82.9851,49.9598,290.1514,0,U,37606,999,5558,0,-.22E-5,0
ZHONGXING-10,2011-026A,2026-07-18T00:26:34.776384,1.00273902,.00034818,1.1249,83.8500,21.4280,282.6824,0,U,37677,999,5530,0,-.198E-5,0
SES-3,2011-035A,2026-07-18T05:37:31.594944,1.00271650,.00020788,1.4051,82.7452,34.6098,160.0750,0,U,37748,999,5490,0,-.11E-5,0
KAZSAT-2,2011-035B,2026-07-17T23:56:55.504896,1.00272613,.00019948,0.0265,112.7278,58.8786,209.9408,0,U,37749,999,5370,0,-.206E-5,0
BEIDOU-2 IGSO-4,2011-038A,2026-07-17T21:13:34.820256,1.00279354,.01603145,54.6049,165.3996,231.4873,311.5627,0,U,37763,999,5495,0,-.32E-6,0
ASTRA 1N,2011-041A,2026-07-18T06:28:23.902176,1.00271305,.00058795,0.0630,16.5651,99.1255,296.6529,0,U,37775,999,4483,0,.112E-5,0
BSAT-3C (JCSAT-110R),2011-041B,2026-07-18T06:54:13.925088,1.00272507,.0000144,0.0340,305.4009,252.8349,311.3626,0,U,37776,999,5078,0,-.358E-5,0
PAKSAT-1R,2011-042A,2026-07-18T06:33:45.888192,1.00270420,.00031449,0.7678,84.3052,352.8680,355.3003,0,U,37779,999,5478,0,.146E-5,0
SES-2,2011-049A,2026-07-18T05:58:04.308672,1.00271858,.00027528,0.1359,90.8847,23.3618,184.3165,0,U,37809,999,5427,0,-.204E-5,0
ARABSAT-5C,2011-049B,2026-07-18T06:28:38.877888,1.00272786,.00035541,0.0537,27.6728,106.0869,279.4660,0,U,37810,999,5434,0,.115E-5,0
EUTELSAT 7 WEST A,2011-051A,2026-07-18T06:20:47.132160,1.00271430,.0004747,0.0610,355.8423,133.0824,255.0075,0,U,37816,999,5418,0,-.68E-6,0
QUETZSAT 1,2011-054A,2026-07-18T06:00:56.534112,1.00272068,.00027654,0.0454,268.7327,212.6599,187.8957,0,U,37826,999,5018,0,-.25E-5,0
INTELSAT 18 (IS-18),2011-056A,2026-07-18T05:50:38.675616,1.00272762,.00018495,0.0382,254.8946,233.4380,75.3713,0,U,37834,999,5412,0,.45E-6,0
EUTELSAT 16A,2011-057A,2026-07-18T06:27:23.997600,1.00269566,.00055358,0.0432,28.6444,88.9252,291.3647,0,U,37836,999,764,0,.96E-6,0
VIASAT-1,2011-059A,2026-07-17T21:16:46.528896,1.00273356,.0002415,0.0201,56.3994,54.8338,28.5636,0,U,37843,999,4763,0,0,0
ASIASAT 7,2011-069A,2026-07-18T00:02:24.979200,1.00270932,.00012845,0.0235,74.0967,15.3822,312.4473,0,U,37933,999,4516,0,-.342E-5,0
BEIDOU-2 IGSO-5,2011-073A,2026-07-02T17:30:18.330912,1.00270596,.01145273,47.6496,271.3544,222.0502,141.5350,0,U,37948,999,5329,0,-.128E-5,0
LUCH-5A,2011-074B,2026-07-17T20:54:41.146848,1.00273626,.00027084,8.8300,73.3548,60.3084,282.6929,0,U,37951,999,5335,0,-.61E-6,0
NIGCOMSAT 1R,2011-077A,2026-07-18T06:35:00.767616,1.00272567,.00024523,0.0333,110.6327,239.7289,86.9510,0,U,38014,999,5326,0,.137E-5,0
WGS F4 (USA 233),2012-003A,2026-07-18T02:36:38.656800,1.00272763,.00005452,0.0205,50.1747,107.8480,265.4615,0,U,38070,999,4445,0,-.223E-5,0
SES-4,2012-007A,2026-07-18T05:26:38.777280,1.00272464,.00025337,0.0234,27.5523,93.2575,234.8926,0,U,38087,999,5253,0,-.176E-5,0
BEIDOU-2 G5,2012-008A,2026-07-17T23:32:38.761152,1.00271104,.00072939,3.6488,69.5023,268.9390,9.1611,0,U,38091,999,5267,0,.47E-6,0
MUOS-1,2012-009A,2026-07-18T04:11:40.395840,1.00271598,.00566541,5.5373,47.1093,3.6019,208.2390,0,U,38093,999,5275,0,-.138E-5,0
INTELSAT 22 (IS-22),2012-011A,2026-07-18T04:13:38.521056,1.00271977,.00018398,0.0192,57.0761,71.5943,302.8213,0,U,38098,999,749,0,-.67E-6,0
APSTAR-7,2012-013A,2026-07-18T03:00:38.789280,1.00271020,.00029909,0.0294,94.0602,33.3671,290.1631,0,U,38107,999,5211,0,-.11E-5,0
YAHSAT 1B,2012-016A,2026-07-17T20:20:37.011840,1.00270462,.00027727,0.0888,88.8483,33.1594,166.3984,0,U,38245,999,4591,0,.118E-5,0
AEHF-2 (USA 235),2012-019A,2026-07-18T00:00:38.784960,1.00272036,.00021778,6.7192,57.2525,62.0873,160.1477,0,U,38254,999,729,0,-.146E-5,0
JCSAT-13,2012-023A,2026-07-18T06:58:06.054240,1.00273163,.00020797,0.0197,47.3956,68.0137,49.2102,0,U,38331,999,5185,0,-.364E-5,0
VINASAT-2,2012-023B,2026-07-18T07:00:28.327392,1.00272657,.0002258,0.0204,337.1936,136.2587,59.6011,0,U,38332,999,4697,0,-.337E-5,0
NIMIQ 6,2012-026A,2026-07-18T05:56:56.915808,1.00271447,.00028079,0.0631,264.5393,216.8608,172.7892,0,U,38342,999,5072,0,-.182E-5,0
ZHONGXING-2A,2012-028A,2026-07-18T00:52:21.806400,1.00269394,.00014315,1.5326,83.4823,40.9602,282.7301,0,U,38352,999,5160,0,-.301E-5,0
INTELSAT 19 (IS-19),2012-030A,2026-07-18T06:00:51.837408,1.00271891,.0002911,0.0167,47.0553,69.4113,75.7885,0,U,38356,999,5076,0,-.65E-6,0
ECHOSTAR 17,2012-035A,2026-07-17T23:01:43.182048,1.00270758,.0002122,0.0186,52.4238,58.5499,63.1142,0,U,38551,999,5137,0,-.84E-6,0
METEOSAT-10 (MSG-3),2012-035B,2026-07-18T06:22:54.427872,1.00271755,.00012967,4.7436,60.8674,16.9729,313.9991,0,U,38552,999,5116,0,-.17E-6,0
SES-5,2012-036A,2026-07-18T05:02:38.645664,1.00271805,.00019299,0.0433,324.7505,152.9947,258.9016,0,U,38652,999,4476,0,.25E-6,0
INTELSAT 20 (IS-20),2012-043A,2026-07-18T04:13:38.521056,1.00271147,.00013077,0.0133,69.4575,112.6418,245.7967,0,U,38740,999,5105,0,-.32E-6,0
HYLAS 2,2012-043B,2026-07-18T06:02:11.414400,1.00272261,.0002394,2.5057,80.6917,55.7593,177.5758,0,U,38741,999,5108,0,-.267E-5,0
INTELSAT 21 (IS-21),2012-045A,2026-07-18T06:06:26.006688,1.00272169,.00016745,0.0476,243.6431,243.9769,202.0510,0,U,38749,999,5083,0,-.293E-5,0
ASTRA 2F,2012-051A,2026-07-18T06:30:53.662752,1.00271096,.00030502,0.0807,255.0385,287.4157,239.4915,0,U,38778,999,4144,0,.142E-5,0
GSAT-10,2012-051B,2026-07-17T23:55:55.601184,1.00272761,.00074828,0.0834,264.3769,190.6261,282.7825,0,U,38779,999,5040,0,-.174E-5,0
INTELSAT 23 (IS-23),2012-057A,2026-07-18T06:07:48.376128,1.00262844,.0000688,0.0119,332.4210,276.1783,86.3552,0,U,38867,999,5026,0,-.293E-5,0
BEIDOU-2 G6,2012-059A,2026-07-17T23:04:03.265824,1.00273227,.00087673,4.4975,73.1882,327.1485,325.4488,0,U,38953,999,5021,0,-.186E-5,0
LUCH-5B,2012-061A,2026-07-17T21:44:56.643360,1.00270306,.00038458,10.5487,49.5742,147.3176,48.7710,0,U,38977,999,4991,0,-.15E-5,0
YAMAL 300K,2012-061B,2026-07-17T19:16:30.806976,1.00274593,.00005397,0.0145,77.6648,90.0769,239.9701,0,U,38978,999,4993,0,0,0
STAR ONE C3,2012-062A,2026-07-18T06:01:33.973824,1.00272736,.00022548,0.0195,53.7214,70.5483,187.1859,0,U,38991,999,5007,0,-.257E-5,0
EUTELSAT 21B,2012-062B,2026-07-18T06:29:01.341888,1.00272536,.00032389,0.0690,341.1130,142.7991,290.9776,0,U,38992,999,5013,0,.122E-5,0
ECHOSTAR 16,2012-065A,2026-07-17T11:16:15.796128,1.00273927,.0002375,0.0187,49.5890,65.8361,287.4250,0,U,39008,999,4994,0,-.292E-5,0
ZHONGXING-12,2012-067A,2026-07-17T23:57:17.968896,1.00271162,.00027398,0.0406,95.9498,20.4727,266.2051,0,U,39017,999,4981,0,-.215E-5,0
EUTELSAT 70B,2012-069A,2026-07-18T05:00:22.599360,1.00271644,.00035977,0.0613,7.6356,108.9735,324.9913,0,U,39020,999,4982,0,-.51E-6,0
YAMAL 402,2012-070A,2026-07-17T23:47:56.366304,1.00271276,.00036875,1.3418,83.7750,26.7839,237.1120,0,U,39022,999,4970,0,.77E-6,0
SKYNET 5D,2012-075A,2026-07-18T04:55:15.589920,1.00271673,.00035255,0.0681,4.7922,120.3982,297.3712,0,U,39034,999,4946,0,.91E-6,0
MEXSAT 3,2012-075B,2026-07-18T05:10:38.483616,1.00271027,.00011709,0.0026,142.5138,327.2032,149.1584,0,U,39035,999,736,0,-.34E-6,0
TDRS 11,2013-004A,2026-07-18T05:51:21.814272,1.00264256,.00054625,3.5661,31.7399,29.5982,148.4136,0,U,39070,999,4700,0,.71E-6,0
AMAZONAS 3,2013-006A,2026-07-18T06:05:33.591264,1.00271705,.00035118,0.0300,223.8361,287.3668,175.2410,0,U,39078,999,4522,0,-.29E-5,0
AZERSPACE 1,2013-006B,2026-07-18T04:53:23.269056,1.00271888,.00018973,0.0194,45.4859,104.5889,265.2523,0,U,39079,999,4911,0,.125E-5,0
SBIRS GEO-2 (USA 241),2013-011A,2026-07-17T21:35:20.065056,1.00271326,.00019959,4.5538,52.5031,58.1655,99.0765,0,U,39120,999,4884,0,-.297E-5,0
EUTELSAT 117 WEST A,2013-012A,2026-07-18T05:10:38.483616,1.00270854,.00027854,0.0434,271.9023,204.2196,140.7504,0,U,39122,999,4874,0,-.21E-6,0
ANIK G1,2013-014A,2026-07-18T04:09:40.586688,1.00271848,.00018021,0.0418,237.6720,247.8583,125.5594,0,U,39127,999,4856,0,-.82E-6,0
ZHONGXING-11,2013-020A,2026-07-18T00:00:10.194336,1.00273705,.00023357,0.0504,275.7326,163.1756,314.8173,0,U,39157,999,4820,0,-.299E-5,0
EUTELSAT 7B,2013-022A,2026-07-18T06:24:54.237024,1.00270413,.00032453,0.0674,344.3825,63.9719,350.9322,0,U,39163,999,4825,0,.4E-6,0
WGS F5 (USA 243),2013-024A,2026-07-18T06:07:55.864416,1.00268916,.0000153,0.0207,68.8705,129.0273,137.6549,0,U,39168,999,4748,0,0,0
SES-6,2013-026A,2026-07-18T05:42:38.726208,1.00272246,.00026443,0.0181,357.4775,100.2177,243.5134,0,U,39172,999,4803,0,-.269E-5,0
IRNSS-1A,2013-034A,2026-07-10T17:17:25.712736,1.00281941,.0017567,35.7704,63.5328,183.4462,356.2994,0,U,39199,999,4760,0,.47E-6,0
MUOS-2,2013-036A,2026-07-18T05:29:12.335136,1.00272908,.00529474,5.0552,45.5538,176.3821,328.3626,0,U,39206,999,4750,0,-.22E-6,0
ALPHASAT,2013-038A,2026-07-18T06:30:01.247328,1.00271384,.00022759,3.0000,1.2046,136.0984,281.1362,0,U,39215,999,4433,0,.126E-5,0
